[{"OBJECT_NAME":"STARLINK-36719","OBJECT_ID":"2026-022A","EPOCH":"2026-03-02T23:48:53.301312","MEAN_MOTION":15.75307052,"ECCENTRICITY":0.00022468,"INCLINATION":97.283,"RA_OF_ASC_NODE":95.6243,"ARG_OF_PERICENTER":93.524,"MEAN_ANOMALY":266.6282,"EPHEMERIS_TYPE":0,"CLASSIFICATION_TYPE":"U","NORAD_CAT_ID":67648,"ELEMENT_SET_NO":999,"REV_AT_EPOCH":449,"BSTAR":0.0018017014,"MEAN_MOTION_DOT":0.00278985,"MEAN_MOTION_DDOT":0},{"OBJECT_NAME":"STARLINK-36342","OBJECT_ID":"2026-022B","EPOCH":"2026-03-02T23:47:52.446336","MEAN_MOTION":15.75263839,"ECCENTRICITY":0.00017131,"INCLINATION":97.2827,"RA_OF_ASC_NODE":95.6258,"ARG_OF_PERICENTER":72.402,"MEAN_ANOMALY":287.7432,"EPHEMERIS_TYPE":0,"CLASSIFICATION_TYPE":"U","NORAD_CAT_ID":67649,"ELEMENT_SET_NO":999,"REV_AT_EPOCH":449,"BSTAR":0.001335523,"MEAN_MOTION_DOT":0.0020457,"MEAN_MOTION_DDOT":0},{"OBJECT_NAME":"STARLINK-36703","OBJECT_ID":"2026-022C","EPOCH":"2026-03-02T20:43:23.514240","MEAN_MOTION":15.7524742,"ECCENTRICITY":0.00013326,"INCLINATION":97.2826,"RA_OF_ASC_NODE":95.4922,"ARG_OF_PERICENTER":117.2175,"MEAN_ANOMALY":242.9226,"EPHEMERIS_TYPE":0,"CLASSIFICATION_TYPE":"U","NORAD_CAT_ID":67650,"ELEMENT_SET_NO":999,"REV_AT_EPOCH":447,"BSTAR":0.001331322,"MEAN_MOTION_DOT":0.0020376,"MEAN_MOTION_DDOT":0},{"OBJECT_NAME":"STARLINK-36696","OBJECT_ID":"2026-022D","EPOCH":"2026-03-02T23:43:48.600480","MEAN_MOTION":15.75241467,"ECCENTRICITY":0.00017494,"INCLINATION":97.2825,"RA_OF_ASC_NODE":95.6287,"ARG_OF_PERICENTER":89.0294,"MEAN_ANOMALY":271.1171,"EPHEMERIS_TYPE":0,"CLASSIFICATION_TYPE":"U","NORAD_CAT_ID":67651,"ELEMENT_SET_NO":999,"REV_AT_EPOCH":449,"BSTAR":0.00091770401,"MEAN_MOTION_DOT":0.00139319,"MEAN_MOTION_DDOT":0},{"OBJECT_NAME":"STARLINK-36699","OBJECT_ID":"2026-022E","EPOCH":"2026-03-02T20:39:50.229792","MEAN_MOTION":15.7521591,"ECCENTRICITY":0.00015747,"INCLINATION":97.2832,"RA_OF_ASC_NODE":95.4967,"ARG_OF_PERICENTER":72.5593,"MEAN_ANOMALY":287.5844,"EPHEMERIS_TYPE":0,"CLASSIFICATION_TYPE":"U","NORAD_CAT_ID":67652,"ELEMENT_SET_NO":999,"REV_AT_EPOCH":447,"BSTAR":0.0010258053,"MEAN_MOTION_DOT":0.00155875,"MEAN_MOTION_DDOT":0},{"OBJECT_NAME":"STARLINK-36694","OBJECT_ID":"2026-022F","EPOCH":"2026-03-02T22:00:01.999584","MEAN_MOTION":15.7517342,"ECCENTRICITY":0.00012389,"INCLINATION":97.2834,"RA_OF_ASC_NODE":95.5617,"ARG_OF_PERICENTER":92.1201,"MEAN_ANOMALY":235.6409,"EPHEMERIS_TYPE":0,"CLASSIFICATION_TYPE":"U","NORAD_CAT_ID":67653,"ELEMENT_SET_NO":999,"REV_AT_EPOCH":580,"BSTAR":0.00016885839,"MEAN_MOTION_DOT":0.00025112,"MEAN_MOTION_DDOT":0},{"OBJECT_NAME":"STARLINK-36620","OBJECT_ID":"2026-022G","EPOCH":"2026-03-02T22:00:01.999584","MEAN_MOTION":15.75146505,"ECCENTRICITY":0.00013091,"INCLINATION":97.2835,"RA_OF_ASC_NODE":95.5621,"ARG_OF_PERICENTER":94.7412,"MEAN_ANOMALY":235.0251,"EPHEMERIS_TYPE":0,"CLASSIFICATION_TYPE":"U","NORAD_CAT_ID":67654,"ELEMENT_SET_NO":999,"REV_AT_EPOCH":580,"BSTAR":0.0005473149,"MEAN_MOTION_DOT":0.0008214,"MEAN_MOTION_DDOT":0},{"OBJECT_NAME":"STARLINK-36720","OBJECT_ID":"2026-022H","EPOCH":"2026-03-02T14:27:49.798944","MEAN_MOTION":15.75194278,"ECCENTRICITY":0.0003808,"INCLINATION":97.2848,"RA_OF_ASC_NODE":95.2358,"ARG_OF_PERICENTER":77.7639,"MEAN_ANOMALY":282.4053,"EPHEMERIS_TYPE":0,"CLASSIFICATION_TYPE":"U","NORAD_CAT_ID":67655,"ELEMENT_SET_NO":999,"REV_AT_EPOCH":443,"BSTAR":0.0012251,"MEAN_MOTION_DOT":0.00186735,"MEAN_MOTION_DDOT":0},{"OBJECT_NAME":"STARLINK-36688","OBJECT_ID":"2026-022J","EPOCH":"2026-03-02T14:26:48.892992","MEAN_MOTION":15.75181854,"ECCENTRICITY":0.0003813,"INCLINATION":97.2852,"RA_OF_ASC_NODE":95.2364,"ARG_OF_PERICENTER":79.9026,"MEAN_ANOMALY":280.2669,"EPHEMERIS_TYPE":0,"CLASSIFICATION_TYPE":"U","NORAD_CAT_ID":67656,"ELEMENT_SET_NO":999,"REV_AT_EPOCH":443,"BSTAR":0.0013691,"MEAN_MOTION_DOT":0.00209137,"MEAN_MOTION_DDOT":0},{"OBJECT_NAME":"STARLINK-36706","OBJECT_ID":"2026-022K","EPOCH":"2026-03-02T14:24:46.954944","MEAN_MOTION":15.75244005,"ECCENTRICITY":0.000285,"INCLINATION":97.2829,"RA_OF_ASC_NODE":95.2365,"ARG_OF_PERICENTER":100.348,"MEAN_ANOMALY":259.8106,"EPHEMERIS_TYPE":0,"CLASSIFICATION_TYPE":"U","NORAD_CAT_ID":67657,"ELEMENT_SET_NO":999,"REV_AT_EPOCH":443,"BSTAR":0.001554,"MEAN_MOTION_DOT":0.00238831,"MEAN_MOTION_DDOT":0},{"OBJECT_NAME":"STARLINK-36701","OBJECT_ID":"2026-022L","EPOCH":"2026-03-02T18:57:40.675104","MEAN_MOTION":15.75237273,"ECCENTRICITY":0.00014043,"INCLINATION":97.2842,"RA_OF_ASC_NODE":95.4409,"ARG_OF_PERICENTER":125.8832,"MEAN_ANOMALY":234.2564,"EPHEMERIS_TYPE":0,"CLASSIFICATION_TYPE":"U","NORAD_CAT_ID":67658,"ELEMENT_SET_NO":999,"REV_AT_EPOCH":446,"BSTAR":0.0015056827,"MEAN_MOTION_DOT":0.00231108,"MEAN_MOTION_DDOT":0},{"OBJECT_NAME":"STARLINK-36642","OBJECT_ID":"2026-022M","EPOCH":"2026-03-02T14:21:43.146720","MEAN_MOTION":15.75190215,"ECCENTRICITY":0.0001243,"INCLINATION":97.2841,"RA_OF_ASC_NODE":95.241,"ARG_OF_PERICENTER":97.2706,"MEAN_ANOMALY":262.87,"EPHEMERIS_TYPE":0,"CLASSIFICATION_TYPE":"U","NORAD_CAT_ID":67659,"ELEMENT_SET_NO":999,"REV_AT_EPOCH":443,"BSTAR":0.0017337,"MEAN_MOTION_DOT":0.00266701,"MEAN_MOTION_DDOT":0},{"OBJECT_NAME":"STARLINK-36673","OBJECT_ID":"2026-022N","EPOCH":"2026-03-02T14:19:41.783232","MEAN_MOTION":15.75202349,"ECCENTRICITY":0.0003281,"INCLINATION":97.2836,"RA_OF_ASC_NODE":95.2427,"ARG_OF_PERICENTER":95.3817,"MEAN_ANOMALY":264.7823,"EPHEMERIS_TYPE":0,"CLASSIFICATION_TYPE":"U","NORAD_CAT_ID":67660,"ELEMENT_SET_NO":999,"REV_AT_EPOCH":443,"BSTAR":0.001314,"MEAN_MOTION_DOT":0.00200674,"MEAN_MOTION_DDOT":0},{"OBJECT_NAME":"STARLINK-36674","OBJECT_ID":"2026-022P","EPOCH":"2026-03-02T15:49:08.425920","MEAN_MOTION":15.75204887,"ECCENTRICITY":0.00023266,"INCLINATION":97.2831,"RA_OF_ASC_NODE":95.3109,"ARG_OF_PERICENTER":72.0297,"MEAN_ANOMALY":288.1221,"EPHEMERIS_TYPE":0,"CLASSIFICATION_TYPE":"U","NORAD_CAT_ID":67661,"ELEMENT_SET_NO":999,"REV_AT_EPOCH":444,"BSTAR":0.0017579341,"MEAN_MOTION_DOT":0.00270744,"MEAN_MOTION_DDOT":0},{"OBJECT_NAME":"STARLINK-36700","OBJECT_ID":"2026-022Q","EPOCH":"2026-03-02T15:46:05.523168","MEAN_MOTION":15.75207275,"ECCENTRICITY":0.0002195,"INCLINATION":97.2836,"RA_OF_ASC_NODE":95.3136,"ARG_OF_PERICENTER":62.5951,"MEAN_ANOMALY":297.5538,"EPHEMERIS_TYPE":0,"CLASSIFICATION_TYPE":"U","NORAD_CAT_ID":67662,"ELEMENT_SET_NO":999,"REV_AT_EPOCH":444,"BSTAR":0.0013099,"MEAN_MOTION_DOT":0.00200056,"MEAN_MOTION_DDOT":0},{"OBJECT_NAME":"STARLINK-36675","OBJECT_ID":"2026-022R","EPOCH":"2026-03-02T15:48:06.703488","MEAN_MOTION":15.75308753,"ECCENTRICITY":5.656e-5,"INCLINATION":97.2829,"RA_OF_ASC_NODE":95.3114,"ARG_OF_PERICENTER":99.5364,"MEAN_ANOMALY":260.5965,"EPHEMERIS_TYPE":0,"CLASSIFICATION_TYPE":"U","NORAD_CAT_ID":67663,"ELEMENT_SET_NO":999,"REV_AT_EPOCH":444,"BSTAR":0.0024478085,"MEAN_MOTION_DOT":0.00383872,"MEAN_MOTION_DDOT":0}]
