STARLINK-36719          
1 67648U 26022A   26061.99228358  .00278985  00000+0  18017-2 0  9991
2 67648  97.2830  95.6243 0002246  93.5240 266.6282 15.75307052  4492
STARLINK-36342          
1 67649U 26022B   26061.99157924  .00204570  00000+0  13355-2 0  9991
2 67649  97.2827  95.6258 0001713  72.4020 287.7432 15.75263839  4490
STARLINK-36703          
1 67650U 26022C   26061.86346660  .00203760  00000+0  13313-2 0  9990
2 67650  97.2826  95.4922 0001332 117.2175 242.9226 15.75247420  4473
STARLINK-36696          
1 67651U 26022D   26061.98875695  .00139319  00000+0  91770-3 0  9991
2 67651  97.2825  95.6287 0001749  89.0294 271.1171 15.75241467  4499
STARLINK-36699          
1 67652U 26022E   26061.86099803  .00155875  00000+0  10258-2 0  9994
2 67652  97.2832  95.4967 0001574  72.5593 287.5844 15.75215910  4476
STARLINK-36694          
1 67653U 26022F   26061.91668981  .00025112  00000+0  16886-3 0  9994
2 67653  97.2834  95.5617 0001238  92.1201 235.6409 15.75173420  5801
STARLINK-36620          
1 67654U 26022G   26061.91668981  .00082140  00000+0  54731-3 0  9990
2 67654  97.2835  95.5621 0001309  94.7412 235.0251 15.75146505  5802
STARLINK-36720          
1 67655U 26022H   26061.60265971  .00186735  00000+0  12251-2 0  9994
2 67655  97.2848  95.2358 0003808  77.7639 282.4053 15.75194278  4433
STARLINK-36688          
1 67656U 26022J   26061.60195478  .00209137  00000+0  13691-2 0  9990
2 67656  97.2852  95.2364 0003813  79.9026 280.2669 15.75181854  4431
STARLINK-36706          
1 67657U 26022K   26061.60054346  .00238831  00000+0  15540-2 0  9997
2 67657  97.2829  95.2365 0002850 100.3480 259.8106 15.75244005  4436
STARLINK-36701          
1 67658U 26022L   26061.79005411  .00231108  00000+0  15057-2 0  9990
2 67658  97.2842  95.4409 0001404 125.8832 234.2564 15.75237273  4467
STARLINK-36642          
1 67659U 26022M   26061.59841605  .00266701  00000+0  17337-2 0  9992
2 67659  97.2841  95.2410 0001243  97.2706 262.8700 15.75190215  4430
STARLINK-36673          
1 67660U 26022N   26061.59701138  .00200674  00000+0  13140-2 0  9995
2 67660  97.2836  95.2427 0003281  95.3817 264.7823 15.75202349  4439
STARLINK-36674          
1 67661U 26022P   26061.65912530  .00270744  00000+0  17579-2 0  9998
2 67661  97.2831  95.3109 0002326  72.0297 288.1221 15.75204887  4448
STARLINK-36700          
1 67662U 26022Q   26061.65700837  .00200056  00000+0  13099-2 0  9996
2 67662  97.2836  95.3136 0002195  62.5951 297.5538 15.75207275  4448
STARLINK-36675          
1 67663U 26022R   26061.65841092  .00383872  00000+0  24478-2 0  9997
2 67663  97.2829  95.3114 0000565  99.5364 260.5965 15.75308753  4441
